{
  "type": "FeatureCollection",
  "features": [
    {
      "type": "Feature",
      "properties": {
        "norad_id": 29740,
        "name": "FENGYUN 1C DEB",
        "group": "fengyun-1c-debris",
        "lat": -38.86459719384387,
        "lon": -157.81886967042144,
        "alt_km": 1877.469916978992,
        "timestamp": "2025-12-07T20:38:14.334899+00:00",
        "meta_object_name": "FENGYUN 1C DEB",
        "meta_object_id": "1999-025AE",
        "meta_epoch": "2025-12-07T01:00:34.493760",
        "meta_mean_motion": 12.08323225,
        "meta_eccentricity": 0.09755315,
        "meta_inclination": 99.044,
        "meta_ra_of_asc_node": 194.223,
        "meta_arg_of_pericenter": 210.0932,
        "meta_mean_anomaly": 144.0473,
        "meta_ephemeris_type": 0,
        "meta_classification_type": "U",
        "meta_norad_cat_id": 29740,
        "meta_element_set_no": 999,
        "meta_rev_at_epoch": 82866,
        "meta_bstar": -0.00047405065,
        "meta_mean_motion_dot": -2.11e-06,
        "meta_mean_motion_ddot": 0,
        "tle_line1": "1 29740U 99025AE  25341.04206590 -.00000211  00000+0 -47405-3 0  9996",
        "tle_line2": "2 29740  99.0440 194.2230 0975531 210.0932 144.0473 12.08323225828669"
      },
      "geometry": {
        "type": "Point",
        "coordinates": [
          -157.81886967042144,
          -38.86459719384387
        ]
      }
    },
    {
      "type": "Feature",
      "properties": {
        "norad_id": 29741,
        "name": "FENGYUN 1C DEB",
        "group": "fengyun-1c-debris",
        "lat": -56.63094369129188,
        "lon": -128.21612768264177,
        "alt_km": 2175.9483247970047,
        "timestamp": "2025-12-07T20:38:14.334910+00:00",
        "meta_object_name": "FENGYUN 1C DEB",
        "meta_object_id": "1999-025AF",
        "meta_epoch": "2025-12-07T03:42:44.000352",
        "meta_mean_motion": 12.00905085,
        "meta_eccentricity": 0.10238412,
        "meta_inclination": 99.1755,
        "meta_ra_of_asc_node": 217.0745,
        "meta_arg_of_pericenter": 74.8751,
        "meta_mean_anomaly": 69.2568,
        "meta_ephemeris_type": 0,
        "meta_classification_type": "U",
        "meta_norad_cat_id": 29741,
        "meta_element_set_no": 999,
        "meta_rev_at_epoch": 52116,
        "meta_bstar": 0.0066221405,
        "meta_mean_motion_dot": 2.568e-05,
        "meta_mean_motion_ddot": 0,
        "tle_line1": "1 29741U 99025AF  25341.15467593  .00002568  00000+0  66221-2 0  9992",
        "tle_line2": "2 29741  99.1755 217.0745 1023841  74.8751  69.2568 12.00905085521169"
      },
      "geometry": {
        "type": "Point",
        "coordinates": [
          -128.21612768264177,
          -56.63094369129188
        ]
      }
    },
    {
      "type": "Feature",
      "properties": {
        "norad_id": 29748,
        "name": "FENGYUN 1C DEB",
        "group": "fengyun-1c-debris",
        "lat": 72.95805775389526,
        "lon": -120.32201251227252,
        "alt_km": 1326.4963812115475,
        "timestamp": "2025-12-07T20:38:14.334920+00:00",
        "meta_object_name": "FENGYUN 1C DEB",
        "meta_object_id": "1999-025AN",
        "meta_epoch": "2025-12-06T01:53:21.077088",
        "meta_mean_motion": 11.89562132,
        "meta_eccentricity": 0.08321495,
        "meta_inclination": 99.8056,
        "meta_ra_of_asc_node": 272.6959,
        "meta_arg_of_pericenter": 21.1067,
        "meta_mean_anomaly": 342.2303,
        "meta_ephemeris_type": 0,
        "meta_classification_type": "U",
        "meta_norad_cat_id": 29748,
        "meta_element_set_no": 999,
        "meta_rev_at_epoch": 78654,
        "meta_bstar": 0.20398933,
        "meta_mean_motion_dot": 0.00038353,
        "meta_mean_motion_ddot": 0,
        "tle_line1": "1 29748U 99025AN  25340.07871617  .00038353  00000+0  20399+0 0  9999",
        "tle_line2": "2 29748  99.8056 272.6959 0832149  21.1067 342.2303 11.89562132786548"
      },
      "geometry": {
        "type": "Point",
        "coordinates": [
          -120.32201251227252,
          72.95805775389526
        ]
      }
    },
    {
      "type": "Feature",
      "properties": {
        "norad_id": 29750,
        "name": "FENGYUN 1C DEB",
        "group": "fengyun-1c-debris",
        "lat": -3.8269380662194417,
        "lon": 11.7031811672331,
        "alt_km": 844.5984355461296,
        "timestamp": "2025-12-07T20:38:14.334931+00:00",
        "meta_object_name": "FENGYUN 1C DEB",
        "meta_object_id": "1999-025AQ",
        "meta_epoch": "2025-12-07T00:21:03.677760",
        "meta_mean_motion": 14.09636334,
        "meta_eccentricity": 0.00352161,
        "meta_inclination": 98.7552,
        "meta_ra_of_asc_node": 10.2906,
        "meta_arg_of_pericenter": 318.0386,
        "meta_mean_anomaly": 70.8887,
        "meta_ephemeris_type": 0,
        "meta_classification_type": "U",
        "meta_norad_cat_id": 29750,
        "meta_element_set_no": 999,
        "meta_rev_at_epoch": 96993,
        "meta_bstar": 0.00045258339,
        "meta_mean_motion_dot": 7.54e-06,
        "meta_mean_motion_ddot": 0,
        "tle_line1": "1 29750U 99025AQ  25341.01462590  .00000754  00000+0  45258-3 0  9992",
        "tle_line2": "2 29750  98.7552  10.2906 0035216 318.0386  70.8887 14.09636334969938"
      },
      "geometry": {
        "type": "Point",
        "coordinates": [
          11.7031811672331,
          -3.8269380662194417
        ]
      }
    },
    {
      "type": "Feature",
      "properties": {
        "norad_id": 29751,
        "name": "FENGYUN 1C DEB",
        "group": "fengyun-1c-debris",
        "lat": -66.87086682280786,
        "lon": 169.27134834962362,
        "alt_km": 825.462572961017,
        "timestamp": "2025-12-07T20:38:14.334941+00:00",
        "meta_object_name": "FENGYUN 1C DEB",
        "meta_object_id": "1999-025AR",
        "meta_epoch": "2025-12-07T07:44:53.240352",
        "meta_mean_motion": 14.23623022,
        "meta_eccentricity": 0.00896868,
        "meta_inclination": 98.542,
        "meta_ra_of_asc_node": 9.3515,
        "meta_arg_of_pericenter": 154.8812,
        "meta_mean_anomaly": 221.6346,
        "meta_ephemeris_type": 0,
        "meta_classification_type": "U",
        "meta_norad_cat_id": 29751,
        "meta_element_set_no": 999,
        "meta_rev_at_epoch": 97996,
        "meta_bstar": 0.00028947927,
        "meta_mean_motion_dot": 6.46e-06,
        "meta_mean_motion_ddot": 0,
        "tle_line1": "1 29751U 99025AR  25341.32283843  .00000646  00000+0  28948-3 0  9996",
        "tle_line2": "2 29751  98.5420   9.3515 0089686 154.8812 221.6346 14.23623022979962"
      },
      "geometry": {
        "type": "Point",
        "coordinates": [
          169.27134834962362,
          -66.87086682280786
        ]
      }
    },
    {
      "type": "Feature",
      "properties": {
        "norad_id": 29754,
        "name": "FENGYUN 1C DEB",
        "group": "fengyun-1c-debris",
        "lat": 76.77521243767438,
        "lon": -53.68261392880022,
        "alt_km": 844.093749438438,
        "timestamp": "2025-12-07T20:38:14.334951+00:00",
        "meta_object_name": "FENGYUN 1C DEB",
        "meta_object_id": "1999-025AU",
        "meta_epoch": "2025-12-07T06:43:19.711200",
        "meta_mean_motion": 14.19116709,
        "meta_eccentricity": 0.00357129,
        "meta_inclination": 98.8848,
        "meta_ra_of_asc_node": 84.0064,
        "meta_arg_of_pericenter": 255.0457,
        "meta_mean_anomaly": 124.5156,
        "meta_ephemeris_type": 0,
        "meta_classification_type": "U",
        "meta_norad_cat_id": 29754,
        "meta_element_set_no": 999,
        "meta_rev_at_epoch": 97277,
        "meta_bstar": 0.0016888085,
        "meta_mean_motion_dot": 3.511e-05,
        "meta_mean_motion_ddot": 0,
        "tle_line1": "1 29754U 99025AU  25341.28008925  .00003511  00000+0  16888-2 0  9993",
        "tle_line2": "2 29754  98.8848  84.0064 0035712 255.0457 124.5156 14.19116709972777"
      },
      "geometry": {
        "type": "Point",
        "coordinates": [
          -53.68261392880022,
          76.77521243767438
        ]
      }
    },
    {
      "type": "Feature",
      "properties": {
        "norad_id": 29758,
        "name": "FENGYUN 1C DEB",
        "group": "fengyun-1c-debris",
        "lat": 37.39351413717825,
        "lon": 90.55608411913127,
        "alt_km": 749.1428490125099,
        "timestamp": "2025-12-07T20:38:14.334961+00:00",
        "meta_object_name": "FENGYUN 1C DEB",
        "meta_object_id": "1999-025AY",
        "meta_epoch": "2025-12-07T07:13:44.022144",
        "meta_mean_motion": 14.40854991,
        "meta_eccentricity": 0.00206091,
        "meta_inclination": 98.8563,
        "meta_ra_of_asc_node": 96.8225,
        "meta_arg_of_pericenter": 324.3048,
        "meta_mean_anomaly": 57.1838,
        "meta_ephemeris_type": 0,
        "meta_classification_type": "U",
        "meta_norad_cat_id": 29758,
        "meta_element_set_no": 999,
        "meta_rev_at_epoch": 97593,
        "meta_bstar": 0.0040675198,
        "meta_mean_motion_dot": 0.00013045,
        "meta_mean_motion_ddot": 0,
        "tle_line1": "1 29758U 99025AY  25341.30120396  .00013045  00000+0  40675-2 0  9991",
        "tle_line2": "2 29758  98.8563  96.8225 0020609 324.3048  57.1838 14.40854991975935"
      },
      "geometry": {
        "type": "Point",
        "coordinates": [
          90.55608411913127,
          37.39351413717825
        ]
      }
    }
  ]
}